0 FENGYUN 1C DEB
1 30997U 99025BCP 13282.51158685  .00004105  00000-0  14653-2 0  6705
2 30997 099.0040 030.8098 0081749 016.1691 043.3743 14.32856801343005
0 FENGYUN 1C DEB
1 30997U 99025BCP 13286.85428748  .00003871  00000-0  13824-2 0  6726
2 30997 099.0045 035.3213 0081611 003.3102 124.6321 14.32882555343620
0 FENGYUN 1C DEB
1 30997U 99025BCP 13289.27926043  .00005292  00000-0  18823-2 0  6730
2 30997 099.0053 037.8412 0081553 356.1214 033.7719 14.32904107343972
0 FENGYUN 1C DEB
1 30997U 99025BCP 13291.51891323  .00004902  00000-0  17444-2 0  6748
2 30997 099.0057 040.1688 0081499 349.4529 067.1428 14.32923582344293
0 FENGYUN 1C DEB
1 30997U 99025BCP 13293.54412157  .00005039  00000-0  17923-2 0  6752
2 30997 099.0055 042.2735 0081486 343.4236 074.4241 14.32939980344587
0 FENGYUN 1C DEB
1 30997U 99025BCP 13295.57029088  .00005733  00000-0  20360-2 0  6765
2 30997 099.0053 044.3794 0081495 337.3947 086.7844 14.32956539344870
